[{"CCSDS_OMM_VERS":"3.0","COMMENT":"GENERATED VIA SPACE-TRACK.ORG API","CREATION_DATE":"2026-05-16T19:46:19","ORIGINATOR":"18 SPCS","OBJECT_NAME":"COSMOS 381","OBJECT_ID":"1970-102A","CENTER_NAME":"EARTH","REF_FRAME":"TEME","TIME_SYSTEM":"UTC","MEAN_ELEMENT_THEORY":"SGP4","EPOCH":"2026-05-16T13:00:45.735264","MEAN_MOTION":"13.75043478","ECCENTRICITY":"0.00297320","INCLINATION":"74.0335","RA_OF_ASC_NODE":"63.9367","ARG_OF_PERICENTER":"90.6319","MEAN_ANOMALY":"269.8207","EPHEMERIS_TYPE":"0","CLASSIFICATION_TYPE":"U","NORAD_CAT_ID":"4783","ELEMENT_SET_NO":"999","REV_AT_EPOCH":"78180","BSTAR":"0.00003028300000","MEAN_MOTION_DOT":"0.00000007","MEAN_MOTION_DDOT":"0.0000000000000","SEMIMAJOR_AXIS":"7359.657","PERIOD":"104.724","APOAPSIS":"1003.403","PERIAPSIS":"959.640","OBJECT_TYPE":"PAYLOAD","RCS_SIZE":"LARGE","COUNTRY_CODE":"CIS","LAUNCH_DATE":"1970-12-02","SITE":"PKMTR","DECAY_DATE":null,"FILE":"5196726","GP_ID":"323494236","TLE_LINE0":"0 COSMOS 381","TLE_LINE1":"1  4783U 70102A   26136.54219601  .00000007  00000-0  30283-4 0  9995","TLE_LINE2":"2  4783  74.0335  63.9367 0029732  90.6319 269.8207 13.75043478781801"},{"CCSDS_OMM_VERS":"3.0","COMMENT":"GENERATED VIA SPACE-TRACK.ORG API","CREATION_DATE":"2026-05-16T19:46:19","ORIGINATOR":"18 SPCS","OBJECT_NAME":"SL-8 R\/B","OBJECT_ID":"1970-102B","CENTER_NAME":"EARTH","REF_FRAME":"TEME","TIME_SYSTEM":"UTC","MEAN_ELEMENT_THEORY":"SGP4","EPOCH":"2026-05-16T13:04:20.974944","MEAN_MOTION":"13.77003953","ECCENTRICITY":"0.00263710","INCLINATION":"74.0294","RA_OF_ASC_NODE":"326.2313","ARG_OF_PERICENTER":"345.4972","MEAN_ANOMALY":"22.2806","EPHEMERIS_TYPE":"0","CLASSIFICATION_TYPE":"U","NORAD_CAT_ID":"4784","ELEMENT_SET_NO":"999","REV_AT_EPOCH":"78481","BSTAR":"0.00010509000000","MEAN_MOTION_DOT":"0.00000081","MEAN_MOTION_DDOT":"0.0000000000000","SEMIMAJOR_AXIS":"7352.670","PERIOD":"104.575","APOAPSIS":"993.924","PERIAPSIS":"955.145","OBJECT_TYPE":"ROCKET BODY","RCS_SIZE":"LARGE","COUNTRY_CODE":"CIS","LAUNCH_DATE":"1970-12-02","SITE":"PKMTR","DECAY_DATE":null,"FILE":"5196726","GP_ID":"323494585","TLE_LINE0":"0 SL-8 R\/B","TLE_LINE1":"1  4784U 70102B   26136.54468721  .00000081  00000-0  10509-3 0  9995","TLE_LINE2":"2  4784  74.0294 326.2313 0026371 345.4972  22.2806 13.77003953784810"},{"CCSDS_OMM_VERS":"3.0","COMMENT":"GENERATED VIA SPACE-TRACK.ORG API","CREATION_DATE":"2026-05-16T19:46:19","ORIGINATOR":"18 SPCS","OBJECT_NAME":"COSMOS 382","OBJECT_ID":"1970-103A","CENTER_NAME":"EARTH","REF_FRAME":"TEME","TIME_SYSTEM":"UTC","MEAN_ELEMENT_THEORY":"SGP4","EPOCH":"2026-05-16T12:59:50.917920","MEAN_MOTION":"8.42041247","ECCENTRICITY":"0.13625820","INCLINATION":"55.8759","RA_OF_ASC_NODE":"332.4203","ARG_OF_PERICENTER":"322.6844","MEAN_ANOMALY":"51.1341","EPHEMERIS_TYPE":"0","CLASSIFICATION_TYPE":"U","NORAD_CAT_ID":"4786","ELEMENT_SET_NO":"999","REV_AT_EPOCH":"70590","BSTAR":"0.00000000000000","MEAN_MOTION_DOT":"-0.00000023","MEAN_MOTION_DDOT":"0.0000000000000","SEMIMAJOR_AXIS":"10205.781","PERIOD":"171.013","APOAPSIS":"5218.268","PERIAPSIS":"2437.025","OBJECT_TYPE":"PAYLOAD","RCS_SIZE":"LARGE","COUNTRY_CODE":"CIS","LAUNCH_DATE":"1970-12-02","SITE":"TTMTR","DECAY_DATE":null,"FILE":"5196726","GP_ID":"323494237","TLE_LINE0":"0 COSMOS 382","TLE_LINE1":"1  4786U 70103A   26136.54156155 -.00000023  00000-0  00000+0 0  9991","TLE_LINE2":"2  4786  55.8759 332.4203 1362582 322.6844  51.1341  8.42041247705907"},{"CCSDS_OMM_VERS":"3.0","COMMENT":"GENERATED VIA SPACE-TRACK.ORG API","CREATION_DATE":"2026-05-16T17:43:08","ORIGINATOR":"18 SPCS","OBJECT_NAME":"SL-12 R\/B(AUX MOTOR)","OBJECT_ID":"1970-103B","CENTER_NAME":"EARTH","REF_FRAME":"TEME","TIME_SYSTEM":"UTC","MEAN_ELEMENT_THEORY":"SGP4","EPOCH":"2026-05-16T14:50:02.341824","MEAN_MOTION":"9.06811658","ECCENTRICITY":"0.17986745","INCLINATION":"51.5849","RA_OF_ASC_NODE":"209.7643","ARG_OF_PERICENTER":"184.2064","MEAN_ANOMALY":"335.7395","EPHEMERIS_TYPE":"0","CLASSIFICATION_TYPE":"U","NORAD_CAT_ID":"4789","ELEMENT_SET_NO":"999","REV_AT_EPOCH":"83682","BSTAR":"0.00692722090000","MEAN_MOTION_DOT":"0.00000102","MEAN_MOTION_DDOT":"0.0000000000000","SEMIMAJOR_AXIS":"9713.829","PERIOD":"158.798","APOAPSIS":"5082.895","PERIAPSIS":"1588.492","OBJECT_TYPE":"ROCKET BODY","RCS_SIZE":"MEDIUM","COUNTRY_CODE":"CIS","LAUNCH_DATE":"1970-12-02","SITE":"TTMTR","DECAY_DATE":null,"FILE":"5196581","GP_ID":"323458100","TLE_LINE0":"0 SL-12 R\/B(AUX MOTOR)","TLE_LINE1":"1 04789U 70103B   26136.61808266  .00000102  00000-0  69272-2 0  9995","TLE_LINE2":"2 04789  51.5849 209.7643 1798675 184.2064 335.7395  9.06811658836827"},{"CCSDS_OMM_VERS":"3.0","COMMENT":"GENERATED VIA SPACE-TRACK.ORG API","CREATION_DATE":"2026-05-16T10:38:26","ORIGINATOR":"18 SPCS","OBJECT_NAME":"SL-12 R\/B(AUX MOTOR)","OBJECT_ID":"1970-103C","CENTER_NAME":"EARTH","REF_FRAME":"TEME","TIME_SYSTEM":"UTC","MEAN_ELEMENT_THEORY":"SGP4","EPOCH":"2026-05-16T01:08:38.560128","MEAN_MOTION":"9.05042556","ECCENTRICITY":"0.17858197","INCLINATION":"51.5969","RA_OF_ASC_NODE":"19.6812","ARG_OF_PERICENTER":"56.5609","MEAN_ANOMALY":"319.3333","EPHEMERIS_TYPE":"0","CLASSIFICATION_TYPE":"U","NORAD_CAT_ID":"4790","ELEMENT_SET_NO":"999","REV_AT_EPOCH":"83318","BSTAR":"-0.00026574598000","MEAN_MOTION_DOT":"-0.00000045","MEAN_MOTION_DDOT":"0.0000000000000","SEMIMAJOR_AXIS":"9726.483","PERIOD":"159.109","APOAPSIS":"5085.323","PERIAPSIS":"1611.374","OBJECT_TYPE":"ROCKET BODY","RCS_SIZE":"MEDIUM","COUNTRY_CODE":"CIS","LAUNCH_DATE":"1970-12-02","SITE":"TTMTR","DECAY_DATE":null,"FILE":"5196540","GP_ID":"323424400","TLE_LINE0":"0 SL-12 R\/B(AUX MOTOR)","TLE_LINE1":"1 04790U 70103C   26136.04766852 -.00000045  00000-0 -26575-3 0  9996","TLE_LINE2":"2 04790  51.5969  19.6812 1785820  56.5609 319.3333  9.05042556833180"},{"CCSDS_OMM_VERS":"3.0","COMMENT":"GENERATED VIA SPACE-TRACK.ORG API","CREATION_DATE":"2026-05-16T19:46:19","ORIGINATOR":"18 SPCS","OBJECT_NAME":"NOAA 1","OBJECT_ID":"1970-106A","CENTER_NAME":"EARTH","REF_FRAME":"TEME","TIME_SYSTEM":"UTC","MEAN_ELEMENT_THEORY":"SGP4","EPOCH":"2026-05-16T13:24:38.462400","MEAN_MOTION":"12.54050121","ECCENTRICITY":"0.00318810","INCLINATION":"101.3389","RA_OF_ASC_NODE":"172.6917","ARG_OF_PERICENTER":"49.3110","MEAN_ANOMALY":"106.5307","EPHEMERIS_TYPE":"0","CLASSIFICATION_TYPE":"U","NORAD_CAT_ID":"4793","ELEMENT_SET_NO":"999","REV_AT_EPOCH":"53672","BSTAR":"0.00007161500000","MEAN_MOTION_DOT":"-0.00000031","MEAN_MOTION_DDOT":"0.0000000000000","SEMIMAJOR_AXIS":"7825.737","PERIOD":"114.828","APOAPSIS":"1472.551","PERIAPSIS":"1422.653","OBJECT_TYPE":"PAYLOAD","RCS_SIZE":"LARGE","COUNTRY_CODE":"US","LAUNCH_DATE":"1970-12-11","SITE":"AFWTR","DECAY_DATE":null,"FILE":"5196727","GP_ID":"323494594","TLE_LINE0":"0 NOAA 1","TLE_LINE1":"1  4793U 70106A   26136.55877850 -.00000031  00000-0  71615-4 0  9999","TLE_LINE2":"2  4793 101.3389 172.6917 0031881  49.3110 106.5307 12.54050121536728"},{"CCSDS_OMM_VERS":"3.0","COMMENT":"GENERATED VIA SPACE-TRACK.ORG API","CREATION_DATE":"2026-05-16T19:46:19","ORIGINATOR":"18 SPCS","OBJECT_NAME":"DELTA 1 R\/B(CEP 1)","OBJECT_ID":"1970-106B","CENTER_NAME":"EARTH","REF_FRAME":"TEME","TIME_SYSTEM":"UTC","MEAN_ELEMENT_THEORY":"SGP4","EPOCH":"2026-05-16T11:41:29.872320","MEAN_MOTION":"12.53274051","ECCENTRICITY":"0.00371660","INCLINATION":"101.3014","RA_OF_ASC_NODE":"146.1420","ARG_OF_PERICENTER":"50.4716","MEAN_ANOMALY":"117.2388","EPHEMERIS_TYPE":"0","CLASSIFICATION_TYPE":"U","NORAD_CAT_ID":"4794","ELEMENT_SET_NO":"999","REV_AT_EPOCH":"92744","BSTAR":"0.00005880200000","MEAN_MOTION_DOT":"-0.00000033","MEAN_MOTION_DDOT":"0.0000000000000","SEMIMAJOR_AXIS":"7828.967","PERIOD":"114.899","APOAPSIS":"1479.929","PERIAPSIS":"1421.735","OBJECT_TYPE":"ROCKET BODY","RCS_SIZE":"LARGE","COUNTRY_CODE":"US","LAUNCH_DATE":"1970-12-11","SITE":"AFWTR","DECAY_DATE":null,"FILE":"5196727","GP_ID":"323494246","TLE_LINE0":"0 DELTA 1 R\/B(CEP 1)","TLE_LINE1":"1  4794U 70106B   26136.48715130 -.00000033  00000-0  58802-4 0  9999","TLE_LINE2":"2  4794 101.3014 146.1420 0037166  50.4716 117.2388 12.53274051927446"},{"CCSDS_OMM_VERS":"3.0","COMMENT":"GENERATED VIA SPACE-TRACK.ORG API","CREATION_DATE":"2026-05-16T17:43:08","ORIGINATOR":"18 SPCS","OBJECT_NAME":"COSMOS 385","OBJECT_ID":"1970-108A","CENTER_NAME":"EARTH","REF_FRAME":"TEME","TIME_SYSTEM":"UTC","MEAN_ELEMENT_THEORY":"SGP4","EPOCH":"2026-05-16T14:19:57.514944","MEAN_MOTION":"13.76978917","ECCENTRICITY":"0.00032588","INCLINATION":"74.0210","RA_OF_ASC_NODE":"82.3160","ARG_OF_PERICENTER":"20.6480","MEAN_ANOMALY":"152.3696","EPHEMERIS_TYPE":"0","CLASSIFICATION_TYPE":"U","NORAD_CAT_ID":"4799","ELEMENT_SET_NO":"999","REV_AT_EPOCH":"78420","BSTAR":"0.00001355397300","MEAN_MOTION_DOT":"-0.00000009","MEAN_MOTION_DDOT":"0.0000000000000","SEMIMAJOR_AXIS":"7352.759","PERIOD":"104.577","APOAPSIS":"977.020","PERIAPSIS":"972.228","OBJECT_TYPE":"PAYLOAD","RCS_SIZE":"LARGE","COUNTRY_CODE":"CIS","LAUNCH_DATE":"1970-12-12","SITE":"PKMTR","DECAY_DATE":null,"FILE":"5196581","GP_ID":"323458102","TLE_LINE0":"0 COSMOS 385","TLE_LINE1":"1 04799U 70108A   26136.59719346 -.00000009  00000-0  13554-4 0  9999","TLE_LINE2":"2 04799  74.0210  82.3160 0003259  20.6480 152.3696 13.76978917784205"}]